$$SOE
2459580.500000000, A.D. 2022-Jan-01 00:00:00.0000, 6.173333150757852E+05, 3.944314005725792E+08, 3.111383746872756E+07,
2459587.500000000, A.D. 2022-Jan-08 00:00:00.0000, -1.039481322398787E+07, 3.958130024914548E+08, 3.222721984103146E+07,
2459594.500000000, A.D. 2022-Jan-15 00:00:00.0000, -2.139896999511129E+07, 3.968881141729233E+08, 3.331564986018863E+07,
2459601.500000000, A.D. 2022-Jan-22 00:00:00.0000, -3.238681103693939E+07, 3.976595843091183E+08, 3.437859341770124E+07,
2459608.500000000, A.D. 2022-Jan-29 00:00:00.0000, -4.335022088071125E+07, 3.981304473886358E+08, 3.541555025766036E+07,
2459615.500000000, A.D. 2022-Feb-05 00:00:00.0000, -5.428129677845908E+07, 3.983039109916233E+08, 3.642605317303744E+07,
2459622.500000000, A.D. 2022-Feb-12 00:00:00.0000, -6.517234824639840E+07, 3.981833424877760E+08, 3.740966690786847E+07,
2459629.500000000, A.D. 2022-Feb-19 00:00:00.0000, -7.601589529317459E+07, 3.977722575164197E+08, 3.836598708544195E+07,
2459636.500000000, A.D. 2022-Feb-26 00:00:00.0000, -8.680466668600973E+07, 3.970743095263277E+08, 3.929463922734988E+07,
2459643.500000000, A.D. 2022-Mar-05 00:00:00.0000, -9.753159813773917E+07, 3.960932797545480E+08, 4.019527780156487E+07,
2459650.500000000, A.D. 2022-Mar-12 00:00:00.0000, -1.081898302339440E+08, 3.948330675736943E+08, 4.106758527675942E+07,
2459657.500000000, A.D. 2022-Mar-19 00:00:00.0000, -1.187727060678542E+08, 3.932976812297439E+08, 4.191127118127185E+07,
2459664.500000000, A.D. 2022-Mar-26 00:00:00.0000, -1.292737685969073E+08, 3.914912289570234E+08, 4.272607116651723E+07,
2459671.500000000, A.D. 2022-Apr-02 00:00:00.0000, -1.396867576870374E+08, 3.894179104057816E+08, 4.351174606611928E+07,
2459678.500000000, A.D. 2022-Apr-09 00:00:00.0000, -1.500056066042704E+08, 3.870820083771105E+08, 4.426808092801645E+07,
2459685.500000000, A.D. 2022-Apr-16 00:00:00.0000, -1.602244376263669E+08, 3.844878815084240E+08, 4.499488404187630E+07,
2459692.500000000, A.D. 2022-Apr-23 00:00:00.0000, -1.703375580714799E+08, 3.816399589836603E+08, 4.569198616841091E+07,
2459699.500000000, A.D. 2022-Apr-30 00:00:00.0000, -1.803394586375178E+08, 3.785427350121251E+08, 4.635923995983170E+07,
2459706.500000000, A.D. 2022-May-07 00:00:00.0000, -1.902248110101787E+08, 3.752007610856431E+08, 4.699651912972988E+07,
2459713.500000000, A.D. 2022-May-14 00:00:00.0000, -1.999884633741508E+08, 3.716186390369686E+08, 4.760371749414983E+07,
2459720.500000000, A.D. 2022-May-21 00:00:00.0000, -2.096254358795384E+08, 3.678010156477529E+08, 4.818074813323008E+07,
2459727.500000000, A.D. 2022-May-28 00:00:00.0000, -2.191309165588158E+08, 3.637525778342853E+08, 4.872754263946164E+07,
2459734.500000000, A.D. 2022-Jun-04 00:00:00.0000, -2.285002574327074E+08, 3.594780480834405E+08, 4.924405040185623E+07,
2459741.500000000, A.D. 2022-Jun-11 00:00:00.0000, -2.377289706749747E+08, 3.549821801266901E+08, 4.973023791316903E+07,
2459748.500000000, A.D. 2022-Jun-18 00:00:00.0000, -2.468127248107512E+08, 3.502697548516303E+08, 5.018608809788598E+07,
2459755.500000000, A.D. 2022-Jun-25 00:00:00.0000, -2.557473409309460E+08, 3.453455764043061E+08, 5.061159965565218E+07,
2459762.500000000, A.D. 2022-Jul-02 00:00:00.0000, -2.645287887993416E+08, 3.402144684032120E+08, 5.100678640247869E+07,
2459769.500000000, A.D. 2022-Jul-09 00:00:00.0000, -2.731531824716983E+08, 3.348812704286037E+08, 5.137167658832987E+07,
2459776.500000000, A.D. 2022-Jul-16 00:00:00.0000, -2.816167754912055E+08, 3.293508358568880E+08, 5.170631228459430E+07,
2459783.500000000, A.D. 2022-Jul-23 00:00:00.0000, -2.899159578678000E+08, 3.236280311065155E+08, 5.201074904956552E+07,
2459790.500000000, A.D. 2022-Jul-30 00:00:00.0000, -2.980472547632960E+08, 3.177177329310358E+08, 5.228505559009351E+07,
2459797.500000000, A.D. 2022-Aug-06 00:00:00.0000, -3.060073232869979E+08, 3.116248243933515E+08, 5.252931314173861E+07,
2459804.500000000, A.D. 2022-Aug-13 00:00:00.0000, -3.137929482320091E+08, 3.053541922624049E+08, 5.274361486791037E+07,
2459811.500000000, A.D. 2022-Aug-20 00:00:00.0000, -3.214010383283981E+08, 2.989107253201940E+08, 5.292806538101891E+07,
2459818.500000000, A.D. 2022-Aug-27 00:00:00.0000, -3.288286229485067E+08, 2.922993128437418E+08, 5.308278031988159E+07,
2459825.500000000, A.D. 2022-Sep-03 00:00:00.0000, -3.360728490184161E+08, 2.855248431417067E+08, 5.320788595116122E+07,
2459832.500000000, A.D. 2022-Sep-10 00:00:00.0000, -3.431309780464831E+08, 2.785922021595391E+08, 5.330351878782633E+07,
2459839.500000000, A.D. 2022-Sep-17 00:00:00.0000, -3.500003832397825E+08, 2.715062721409037E+08, 5.336982522083664E+07,
2459846.500000000, A.D. 2022-Sep-24 00:00:00.0000, -3.566785466485111E+08, 2.642719302833313E+08, 5.340696115332928E+07,
2459853.500000000, A.D. 2022-Oct-01 00:00:00.0000, -3.631630561001061E+08, 2.568940473549330E+08, 5.341509161265555E+07,
2459860.500000000, A.D. 2022-Oct-08 00:00:00.0000, -3.694516015187567E+08, 2.493774867848270E+08, 5.339439034508900E+07,
2459867.500000000, A.D. 2022-Oct-15 00:00:00.0000, -3.755419715658702E+08, 2.417271054190713E+08, 5.334503957642104E+07,
2459874.500000000, A.D. 2022-Oct-22 00:00:00.0000, -3.814320527867497E+08, 2.339477542533938E+08, 5.326723000078240E+07,
2459881.500000000, A.D. 2022-Oct-29 00:00:00.0000, -3.871198287657431E+08, 2.260442765454128E+08, 5.316116055609225E+07,
2459888.500000000, A.D. 2022-Nov-05 00:00:00.0000, -3.926033771873620E+08, 2.180215060402598E+08, 5.302703801639967E+07,
2459895.500000000, A.D. 2022-Nov-12 00:00:00.0000, -3.978808667680394E+08, 2.098842665686823E+08, 5.286507668392426E+07,
2459902.500000000, A.D. 2022-Nov-19 00:00:00.0000, -4.029505547790111E+08, 2.016373720579077E+08, 5.267549816820414E+07,
2459909.500000000, A.D. 2022-Nov-26 00:00:00.0000, -4.078107848975594E+08, 1.932856265527439E+08, 5.245853119518453E+07,
2459916.500000000, A.D. 2022-Dec-03 00:00:00.0000, -4.124599852195113E+08, 1.848338242296596E+08, 5.221441142940825E+07,
2459923.500000000, A.D. 2022-Dec-10 00:00:00.0000, -4.168966663866330E+08, 1.762867494168914E+08, 5.194338130608261E+07,
2459930.500000000, A.D. 2022-Dec-17 00:00:00.0000, -4.211194198035520E+08, 1.676491765903303E+08, 5.164568986822947E+07,
2459937.500000000, A.D. 2022-Dec-24 00:00:00.0000, -4.251269158341526E+08, 1.589258702744790E+08, 5.132159259308671E+07,
2459944.500000000, A.D. 2022-Dec-31 00:00:00.0000, -4.289179016189926E+08, 1.501215849513673E+08, 5.097135118335610E+07,
2459951.500000000, A.D. 2023-Jan-07 00:00:00.0000, -4.324911983900875E+08, 1.412410659351856E+08, 5.059523339030799E+07,
2459958.500000000, A.D. 2023-Jan-14 00:00:00.0000, -4.358457002499406E+08, 1.322890517048075E+08, 5.019351308947000E+07,
2459965.500000000, A.D. 2023-Jan-21 00:00:00.0000, -4.389803750607576E+08, 1.232702745182045E+08, 4.976647040870685E+07,
2459972.500000000, A.D. 2023-Jan-28 00:00:00.0000, -4.418942637750071E+08, 1.141894591111278E+08, 4.931439155613065E+07,
2459979.500000000, A.D. 2023-Feb-04 00:00:00.0000, -4.445864784128086E+08, 1.050513225038616E+08, 4.883756861391824E+07,
2459986.500000000, A.D. 2023-Feb-11 00:00:00.0000, -4.470562004808392E+08, 9.586057471774448E+07, 4.833629944657040E+07,
2459993.500000000, A.D. 2023-Feb-18 00:00:00.0000, -4.493026798969410E+08, 8.662191957546514E+07, 4.781088766210899E+07,
2460000.500000000, A.D. 2023-Feb-25 00:00:00.0000, -4.513252341573240E+08, 7.734005542144628E+07, 4.726164258880596E+07,
2460007.500000000, A.D. 2023-Mar-04 00:00:00.0000, -4.531232476428720E+08, 6.801967577898574E+07, 4.668887925939851E+07,
2460014.500000000, A.D. 2023-Mar-11 00:00:00.0000, -4.546961710343882E+08, 5.866546994221509E+07, 4.609291839994614E+07,
2460021.500000000, A.D. 2023-Mar-18 00:00:00.0000, -4.560435207881902E+08, 4.928212345073993E+07, 4.547408641471025E+07,
2460028.500000000, A.D. 2023-Mar-25 00:00:00.0000, -4.571648784673757E+08, 3.987431839687201E+07, 4.483271534434300E+07,
2460035.500000000, A.D. 2023-Apr-01 00:00:00.0000, -4.580598895031126E+08, 3.044673395574384E+07, 4.416914279047404E+07,
2460042.500000000, A.D. 2023-Apr-08 00:00:00.0000, -4.587282620006985E+08, 2.100404835984255E+07, 4.348371196321512E+07,
2460049.500000000, A.D. 2023-Apr-15 00:00:00.0000, -4.591697679283515E+08, 1.155094120813176E+07, 4.277677197566903E+07,
2460056.500000000, A.D. 2023-Apr-22 00:00:00.0000, -4.593842448823417E+08, 2.092093055410884E+06, 4.204867797042937E+07,
2460063.500000000, A.D. 2023-Apr-29 00:00:00.0000, -4.593715956944178E+08, -7.367815465877960E+06, 4.129979101150174E+07,
2460070.500000000, A.D. 2023-May-06 00:00:00.0000, -4.591317876404407E+08, -1.682410321163542E+07, 4.053047804841414E+07,
2460077.500000000, A.D. 2023-May-13 00:00:00.0000, -4.586648522267596E+08, -2.627208767568499E+07, 3.974111196869116E+07,
2460084.500000000, A.D. 2023-May-20 00:00:00.0000, -4.579708853204826E+08, -3.570708421547522E+07, 3.893207167665498E+07,
2460091.500000000, A.D. 2023-May-27 00:00:00.0000, -4.570500474290193E+08, -4.512440538454294E+07, 3.810374217781495E+07,
2460098.500000000, A.D. 2023-Jun-03 00:00:00.0000, -4.559025640692620E+08, -5.451936034816255E+07, 3.725651466498788E+07,
2460105.500000000, A.D. 2023-Jun-10 00:00:00.0000, -4.545287262014565E+08, -6.388725439974629E+07, 3.639078660223912E+07,
2460112.500000000, A.D. 2023-Jun-17 00:00:00.0000, -4.529288906394394E+08, -7.322338864228652E+07, 3.550696179318620E+07,
2460119.500000000, A.D. 2023-Jun-24 00:00:00.0000, -4.511034801193240E+08, -8.252305978265099E+07, 3.460545040864670E+07,
2460126.500000000, A.D. 2023-Jul-01 00:00:00.0000, -4.490529827754723E+08, -9.178155921299168E+07, 3.368666901788265E+07,
2460133.500000000, A.D. 2023-Jul-08 00:00:00.0000, -4.467779526987393E+08, -1.009941705593215E+08, 3.275104084385063E+07,
2460140.500000000, A.D. 2023-Jul-15 00:00:00.0000, -4.442790128550081E+08, -1.101561685298838E+08, 3.179899612798738E+07,
2460147.500000000, A.D. 2023-Jul-22 00:00:00.0000, -4.415568568447283E+08, -1.192628201002176E+08, 3.083097219683450E+07,
$$EOE